[{"OBJECT_NAME":"STARLINK-4794","OBJECT_ID":"2022-114AM","EPOCH":"2026-03-09T22:33:00.750528","MEAN_MOTION":15.08849404,"ECCENTRICITY":9.939e-5,"INCLINATION":53.2166,"RA_OF_ASC_NODE":292.6954,"ARG_OF_PERICENTER":90.6773,"MEAN_ANOMALY":269.4333,"EPHEMERIS_TYPE":0,"CLASSIFICATION_TYPE":"U","NORAD_CAT_ID":53853,"ELEMENT_SET_NO":999,"REV_AT_EPOCH":19301,"BSTAR":-1.8469315e-5,"MEAN_MOTION_DOT":-5.82e-6,"MEAN_MOTION_DDOT":0},{"OBJECT_NAME":"LEMUR-2-AHMED-ASRAR","OBJECT_ID":"2024-149DN","EPOCH":"2026-03-09T17:35:01.338432","MEAN_MOTION":15.10376432,"ECCENTRICITY":0.00016334,"INCLINATION":97.7021,"RA_OF_ASC_NODE":152.9847,"ARG_OF_PERICENTER":18.5035,"MEAN_ANOMALY":341.6253,"EPHEMERIS_TYPE":0,"CLASSIFICATION_TYPE":"U","NORAD_CAT_ID":60576,"ELEMENT_SET_NO":999,"REV_AT_EPOCH":8554,"BSTAR":0.0007977347,"MEAN_MOTION_DOT":0.00013045,"MEAN_MOTION_DDOT":0}]
